ATLAS CENTAUR R/B       
1 06155U 72065B   26042.20674981  .00001412  00000+0  19576-3 0  9996
2 06155  35.0012 100.9417 0033336 148.1796 212.0927 14.77608486837345
SL-8 R/B                
1 08459U 75112B   26042.48775763  .00000197  00000+0  73310-4 0  9997
2 08459  74.0590  67.1144 0015298 169.8108 190.3359 14.38190342628106
SL-3 R/B                
1 10114U 77057B   26042.55466971  .00014075  00000+0  30281-3 0  9993
2 10114  97.5735 213.3470 0007832  25.5445 334.6189 15.44728746664299
SEASAT 1                
1 10967U 78064A   26042.62551478  .00000285  00000+0  11814-3 0  9992
2 10967 108.0161  70.8007 0001635 291.9624  68.1348 14.46139067502741
SL-14 R/B               
1 11267U 79011B   26042.62410730  .00000622  00000+0  58917-4 0  9995
2 11267  82.5250 121.3037 0017083 140.6433 219.6032 14.91876254524896
SL-8 R/B                
1 11574U 79089B   26042.59687352  .00000295  00000+0  97058-4 0  9998
2 11574  74.0697 139.3435 0016676 315.1889  44.7920 14.42334527432349
SL-14 R/B               
1 11672U 80005B   26042.21731196  .00000785  00000+0  76958-4 0  9992
2 11672  82.5175 332.3397 0014169 250.1778 109.7914 14.90895801472546
SL-8 R/B                
1 12139U 81003B   26041.83867079  .00017012  00000+0  45050-3 0  9996
2 12139  82.9392 314.8320 0262986 272.3754  84.7392 15.09997678310621
SL-3 R/B                
1 12465U 81046B   26042.56181223  .00014270  00000+0  33965-3 0  9991
2 12465  81.2341 321.0942 0020764 107.9147 252.4362 15.41258572434407
SL-3 R/B                
1 12904U 81103B   26042.59275070  .00005256  00000+0  23501-3 0  9999
2 12904  81.1561 244.0435 0013642  17.3410 342.8284 15.21054466969261
SL-3 R/B                
1 13068U 82013B   26042.54627043  .00005917  00000+0  25858-3 0  9999
2 13068  81.1744 191.3996 0021715 267.8690  92.0055 15.21723501400379
SL-3 R/B                
1 13154U 82039B   26042.61454584  .00002427  00000+0  14668-3 0  9999
2 13154  81.1608 246.0181 0030081  49.7175 310.6672 15.09933616377709
