CCSDS_OMM_VERS = 2.0
CREATION_DATE  = 
ORIGINATOR     = 

OBJECT_NAME    = ATLAS CENTAUR R/B
OBJECT_ID      = 1972-065B
CENTER_NAME    = EARTH
REF_FRAME      = TEME
TIME_SYSTEM    = UTC
MEAN_ELEMENT_THEORY = SGP/SGP4

EPOCH          = 2026-02-11T04:57:43.183584
MEAN_MOTION    = 14.77608486
ECCENTRICITY   = .00333369
INCLINATION    = 35.0012
RA_OF_ASC_NODE = 100.9417
ARG_OF_PERICENTER = 148.1796
MEAN_ANOMALY   = 212.0927

EPHEMERIS_TYPE = 0
CLASSIFICATION_TYPE = U
NORAD_CAT_ID   = 6155
ELEMENT_SET_NO = 999
REV_AT_EPOCH   = 83734
BSTAR          = .19575582E-3
MEAN_MOTION_DOT = .1412E-4
MEAN_MOTION_DDOT = 0

CCSDS_OMM_VERS = 2.0
CREATION_DATE  = 
ORIGINATOR     = 

OBJECT_NAME    = SL-8 R/B
OBJECT_ID      = 1975-112B
CENTER_NAME    = EARTH
REF_FRAME      = TEME
TIME_SYSTEM    = UTC
MEAN_ELEMENT_THEORY = SGP/SGP4

EPOCH          = 2026-02-11T11:42:22.259232
MEAN_MOTION    = 14.38190342
ECCENTRICITY   = .00152982
INCLINATION    = 74.0590
RA_OF_ASC_NODE = 67.1144
ARG_OF_PERICENTER = 169.8108
MEAN_ANOMALY   = 190.3359

EPHEMERIS_TYPE = 0
CLASSIFICATION_TYPE = U
NORAD_CAT_ID   = 8459
ELEMENT_SET_NO = 999
REV_AT_EPOCH   = 62810
BSTAR          = .73310057E-4
MEAN_MOTION_DOT = .197E-5
MEAN_MOTION_DDOT = 0

CCSDS_OMM_VERS = 2.0
CREATION_DATE  = 
ORIGINATOR     = 

OBJECT_NAME    = SL-3 R/B
OBJECT_ID      = 1977-057B
CENTER_NAME    = EARTH
REF_FRAME      = TEME
TIME_SYSTEM    = UTC
MEAN_ELEMENT_THEORY = SGP/SGP4

EPOCH          = 2026-02-11T13:18:43.462944
MEAN_MOTION    = 15.44728746
ECCENTRICITY   = .00078322
INCLINATION    = 97.5735
RA_OF_ASC_NODE = 213.3470
ARG_OF_PERICENTER = 25.5445
MEAN_ANOMALY   = 334.6189

EPHEMERIS_TYPE = 0
CLASSIFICATION_TYPE = U
NORAD_CAT_ID   = 10114
ELEMENT_SET_NO = 999
REV_AT_EPOCH   = 66429
BSTAR          = .3028146E-3
MEAN_MOTION_DOT = .14075E-3
MEAN_MOTION_DDOT = 0

CCSDS_OMM_VERS = 2.0
CREATION_DATE  = 
ORIGINATOR     = 

OBJECT_NAME    = SEASAT 1
OBJECT_ID      = 1978-064A
CENTER_NAME    = EARTH
REF_FRAME      = TEME
TIME_SYSTEM    = UTC
MEAN_ELEMENT_THEORY = SGP/SGP4

EPOCH          = 2026-02-11T15:00:44.476992
MEAN_MOTION    = 14.46139067
ECCENTRICITY   = .00016355
INCLINATION    = 108.0161
RA_OF_ASC_NODE = 70.8007
ARG_OF_PERICENTER = 291.9624
MEAN_ANOMALY   = 68.1348

EPHEMERIS_TYPE = 0
CLASSIFICATION_TYPE = U
NORAD_CAT_ID   = 10967
ELEMENT_SET_NO = 999
REV_AT_EPOCH   = 50274
BSTAR          = .11814401E-3
MEAN_MOTION_DOT = .285E-5
MEAN_MOTION_DDOT = 0

CCSDS_OMM_VERS = 2.0
CREATION_DATE  = 
ORIGINATOR     = 

OBJECT_NAME    = SL-14 R/B
OBJECT_ID      = 1979-011B
CENTER_NAME    = EARTH
REF_FRAME      = TEME
TIME_SYSTEM    = UTC
MEAN_ELEMENT_THEORY = SGP/SGP4

EPOCH          = 2026-02-11T14:58:42.870720
MEAN_MOTION    = 14.91876254
ECCENTRICITY   = .00170832
INCLINATION    = 82.5250
RA_OF_ASC_NODE = 121.3037
ARG_OF_PERICENTER = 140.6433
MEAN_ANOMALY   = 219.6032

EPHEMERIS_TYPE = 0
CLASSIFICATION_TYPE = U
NORAD_CAT_ID   = 11267
ELEMENT_SET_NO = 999
REV_AT_EPOCH   = 52489
BSTAR          = .58916587E-4
MEAN_MOTION_DOT = .622E-5
MEAN_MOTION_DDOT = 0

CCSDS_OMM_VERS = 2.0
CREATION_DATE  = 
ORIGINATOR     = 

OBJECT_NAME    = SL-8 R/B
OBJECT_ID      = 1979-089B
CENTER_NAME    = EARTH
REF_FRAME      = TEME
TIME_SYSTEM    = UTC
MEAN_ELEMENT_THEORY = SGP/SGP4

EPOCH          = 2026-02-11T14:19:29.872128
MEAN_MOTION    = 14.42334527
ECCENTRICITY   = .00166767
INCLINATION    = 74.0697
RA_OF_ASC_NODE = 139.3435
ARG_OF_PERICENTER = 315.1889
MEAN_ANOMALY   = 44.7920

EPHEMERIS_TYPE = 0
CLASSIFICATION_TYPE = U
NORAD_CAT_ID   = 11574
ELEMENT_SET_NO = 999
REV_AT_EPOCH   = 43234
BSTAR          = .97057683E-4
MEAN_MOTION_DOT = .295E-5
MEAN_MOTION_DDOT = 0

CCSDS_OMM_VERS = 2.0
CREATION_DATE  = 
ORIGINATOR     = 

OBJECT_NAME    = SL-14 R/B
OBJECT_ID      = 1980-005B
CENTER_NAME    = EARTH
REF_FRAME      = TEME
TIME_SYSTEM    = UTC
MEAN_ELEMENT_THEORY = SGP/SGP4

EPOCH          = 2026-02-11T05:12:55.753344
MEAN_MOTION    = 14.90895801
ECCENTRICITY   = .00141691
INCLINATION    = 82.5175
RA_OF_ASC_NODE = 332.3397
ARG_OF_PERICENTER = 250.1778
MEAN_ANOMALY   = 109.7914

EPHEMERIS_TYPE = 0
CLASSIFICATION_TYPE = U
NORAD_CAT_ID   = 11672
ELEMENT_SET_NO = 999
REV_AT_EPOCH   = 47254
BSTAR          = .76958326E-4
MEAN_MOTION_DOT = .785E-5
MEAN_MOTION_DDOT = 0

CCSDS_OMM_VERS = 2.0
CREATION_DATE  = 
ORIGINATOR     = 

OBJECT_NAME    = SL-8 R/B
OBJECT_ID      = 1981-003B
CENTER_NAME    = EARTH
REF_FRAME      = TEME
TIME_SYSTEM    = UTC
MEAN_ELEMENT_THEORY = SGP/SGP4

EPOCH          = 2026-02-10T20:07:41.156256
MEAN_MOTION    = 15.09997678
ECCENTRICITY   = .02629867
INCLINATION    = 82.9392
RA_OF_ASC_NODE = 314.8320
ARG_OF_PERICENTER = 272.3754
MEAN_ANOMALY   = 84.7392

EPHEMERIS_TYPE = 0
CLASSIFICATION_TYPE = U
NORAD_CAT_ID   = 12139
ELEMENT_SET_NO = 999
REV_AT_EPOCH   = 31062
BSTAR          = .45050366E-3
MEAN_MOTION_DOT = .17012E-3
MEAN_MOTION_DDOT = 0

CCSDS_OMM_VERS = 2.0
CREATION_DATE  = 
ORIGINATOR     = 

OBJECT_NAME    = SL-3 R/B
OBJECT_ID      = 1981-046B
CENTER_NAME    = EARTH
REF_FRAME      = TEME
TIME_SYSTEM    = UTC
MEAN_ELEMENT_THEORY = SGP/SGP4

EPOCH          = 2026-02-11T13:29:00.576672
MEAN_MOTION    = 15.41258572
ECCENTRICITY   = .00207646
INCLINATION    = 81.2341
RA_OF_ASC_NODE = 321.0942
ARG_OF_PERICENTER = 107.9147
MEAN_ANOMALY   = 252.4362

EPHEMERIS_TYPE = 0
CLASSIFICATION_TYPE = U
NORAD_CAT_ID   = 12465
ELEMENT_SET_NO = 999
REV_AT_EPOCH   = 43440
BSTAR          = .33965116E-3
MEAN_MOTION_DOT = .1427E-3
MEAN_MOTION_DDOT = 0

CCSDS_OMM_VERS = 2.0
CREATION_DATE  = 
ORIGINATOR     = 

OBJECT_NAME    = SL-3 R/B
OBJECT_ID      = 1981-103B
CENTER_NAME    = EARTH
REF_FRAME      = TEME
TIME_SYSTEM    = UTC
MEAN_ELEMENT_THEORY = SGP/SGP4

EPOCH          = 2026-02-11T14:13:33.660480
MEAN_MOTION    = 15.21054466
ECCENTRICITY   = .00136422
INCLINATION    = 81.1561
RA_OF_ASC_NODE = 244.0435
ARG_OF_PERICENTER = 17.3410
MEAN_ANOMALY   = 342.8284

EPHEMERIS_TYPE = 0
CLASSIFICATION_TYPE = U
NORAD_CAT_ID   = 12904
ELEMENT_SET_NO = 999
REV_AT_EPOCH   = 96926
BSTAR          = .23501001E-3
MEAN_MOTION_DOT = .5256E-4
MEAN_MOTION_DDOT = 0

CCSDS_OMM_VERS = 2.0
CREATION_DATE  = 
ORIGINATOR     = 

OBJECT_NAME    = SL-3 R/B
OBJECT_ID      = 1982-013B
CENTER_NAME    = EARTH
REF_FRAME      = TEME
TIME_SYSTEM    = UTC
MEAN_ELEMENT_THEORY = SGP/SGP4

EPOCH          = 2026-02-11T13:06:37.765152
MEAN_MOTION    = 15.21723501
ECCENTRICITY   = .00217159
INCLINATION    = 81.1744
RA_OF_ASC_NODE = 191.3996
ARG_OF_PERICENTER = 267.8690
MEAN_ANOMALY   = 92.0055

EPHEMERIS_TYPE = 0
CLASSIFICATION_TYPE = U
NORAD_CAT_ID   = 13068
ELEMENT_SET_NO = 999
REV_AT_EPOCH   = 40037
BSTAR          = .25857742E-3
MEAN_MOTION_DOT = .5917E-4
MEAN_MOTION_DDOT = 0

CCSDS_OMM_VERS = 2.0
CREATION_DATE  = 
ORIGINATOR     = 

OBJECT_NAME    = SL-3 R/B
OBJECT_ID      = 1982-039B
CENTER_NAME    = EARTH
REF_FRAME      = TEME
TIME_SYSTEM    = UTC
MEAN_ELEMENT_THEORY = SGP/SGP4

EPOCH          = 2026-02-11T14:44:56.760576
MEAN_MOTION    = 15.09933616
ECCENTRICITY   = .00300813
INCLINATION    = 81.1608
RA_OF_ASC_NODE = 246.0181
ARG_OF_PERICENTER = 49.7175
MEAN_ANOMALY   = 310.6672

EPHEMERIS_TYPE = 0
CLASSIFICATION_TYPE = U
NORAD_CAT_ID   = 13154
ELEMENT_SET_NO = 999
REV_AT_EPOCH   = 37770
BSTAR          = .14668139E-3
MEAN_MOTION_DOT = .2427E-4
MEAN_MOTION_DDOT = 0

